EUTELSAT QUANTUM        
1 49056U 21069B   25262.59065172  .00000000  00000+0  00000+0 0  9992
2 49056   0.0189 139.4613 0002323  61.9305  57.6775  1.00268936 15216
EUTELSAT KONNECT VHTS   
1 53765U 22110A   25262.58172502 -.00000001  00000+0  00000+0 0  9999
2 53765   0.0536 104.0002 0002573  63.6352  43.2257  1.00270499  4112
EUTELSAT HOTBIRD 13F    
1 54048U 22134A   25262.58371837  .00000069  00000+0  00000+0 0  9995
2 54048   0.0607 289.0666 0002074  63.8867 228.9200  1.00271317 10662
EUTELSAT HOTBIRD 13G    
1 54225U 22146A   25262.58371837  .00000069  00000+0  00000+0 0  9995
2 54225   0.0512 234.8862 0002063 311.2873  35.7162  1.00271248  4752
EUTELSAT 10B            
1 54259U 22157A   25262.58311170  .00000050  00000+0  00000+0 0  9998
2 54259   0.0559 102.4551 0001525   1.1292 115.0344  1.00270757 10303
EUTELSAT 36D            
1 59346U 24059A   25262.58831171  .00000138  00000+0  00000+0 0  9998
2 59346   0.0019 147.2901 0000394  31.0990  67.9959  1.00270095  5432
